ONEWEB-0589             
1 54655U 22166P   24354.48526054  .00000044  00000+0  73821-4 0  9996
2 54655  87.9294 352.5081 0002647  79.6791 280.4642 13.21828755 99587
ONEWEB-0590             
1 54656U 22166Q   24354.58461055  .00000097  00000+0  20324-3 0  9994
2 54656  87.9281 352.4931 0001921  92.4785 267.6569 13.21827307 99584
ONEWEB-0591             
1 54657U 22166R   24354.52155021  .00000045  00000+0  76762-4 0  9993
2 54657  87.9291 352.5027 0001987  88.3078 271.8283 13.21826138 99608
ONEWEB-0592             
1 54658U 22166S   24354.52468725 -.00000001  00000+0 -33356-4 0  9998
2 54658  87.9289 352.4610 0001966  89.6814 270.4546 13.21823999 99487
ONEWEB-0593             
1 54659U 22166T   24354.54833818  .00000050  00000+0  90211-4 0  9995
2 54659  87.9292 352.4883 0002015  86.7447 273.3917 13.21825237 99593
ONEWEB-0594             
1 54660U 22166U   24354.49157295  .00000072  00000+0  14256-3 0  9997
2 54660  87.9298 352.5057 0001760  86.8894 273.2441 13.21824783 99606
ONEWEB-0595             
1 54661U 22166V   24354.46950215  .00000005  00000+0 -19018-4 0  9997
2 54661  87.9294 352.4932 0001718  93.7084 266.4246 13.21826925 99578
ONEWEB-0596             
1 54662U 22166W   24354.51837572  .00000063  00000+0  12021-3 0  9993
2 54662  87.9297 352.4924 0002033  90.8417 269.2950 13.21823323 99585
